[{"OBJECT_NAME":"NUSAT-44 (MARIA MITCHELL)","OBJECT_ID":"2024-043AA","EPOCH":"2026-03-09T22:12:18.524160","MEAN_MOTION":15.29764305,"ECCENTRICITY":0.0007331,"INCLINATION":97.5299,"RA_OF_ASC_NODE":207.7691,"ARG_OF_PERICENTER":214.9017,"MEAN_ANOMALY":145.1743,"EPHEMERIS_TYPE":0,"CLASSIFICATION_TYPE":"U","NORAD_CAT_ID":59122,"ELEMENT_SET_NO":999,"REV_AT_EPOCH":11209,"BSTAR":0.00061063193,"MEAN_MOTION_DOT":0.00017562,"MEAN_MOTION_DDOT":0},{"OBJECT_NAME":"STARLINK-35647","OBJECT_ID":"2025-257J","EPOCH":"2026-03-09T17:32:02.587200","MEAN_MOTION":15.30203663,"ECCENTRICITY":9.304e-5,"INCLINATION":53.1609,"RA_OF_ASC_NODE":216.5566,"ARG_OF_PERICENTER":90.4044,"MEAN_ANOMALY":269.7064,"EPHEMERIS_TYPE":0,"CLASSIFICATION_TYPE":"U","NORAD_CAT_ID":66388,"ELEMENT_SET_NO":999,"REV_AT_EPOCH":1973,"BSTAR":0.00083883129,"MEAN_MOTION_DOT":0.0002457,"MEAN_MOTION_DDOT":0}]
